[Satellite]
VERSION=1.1
NAME=EO-1
NICKNAME=EO-1
TLE1=1 26619U 00075A   17186.15839298  .00001098  00000-0  21610-3 0  9995
TLE2=2 26619  97.8356 214.4941 0010710  54.7057 305.5172 14.64389279886161
